{"type": "FeatureCollection", "features": [ {"type": "Feature", "properties": {"norad_id": 30081, "name": "FENGYUN 1C DEB", "group": "fengyun-1c-debris", "lat": -34.01806581826519, "lon": -14.142316142396263, "alt_km": 854.803145724879, "timestamp": "2025-12-09T09:46:47.919267+00:00", "meta": {"OBJECT_NAME": "FENGYUN 1C DEB", "OBJECT_ID": "1999-025QJ", "EPOCH": "2025-12-08T23:55:10.062336", "MEAN_MOTION": 13.98269143, "ECCENTRICITY": 0.00760763, "INCLINATION": 98.9222, "RA_OF_ASC_NODE": 339.3716, "ARG_OF_PERICENTER": 349.5573, "MEAN_ANOMALY": 69.3728, "EPHEMERIS_TYPE": 0, "CLASSIFICATION_TYPE": "U", "NORAD_CAT_ID": 30081, "ELEMENT_SET_NO": 999, "REV_AT_EPOCH": 96302, "BSTAR": 0.00066360543, "MEAN_MOTION_DOT": 9.27e-06, "MEAN_MOTION_DDOT": 0}, "tle": {"line1": "1 30081U 99025QJ  25342.99664424  .00000927  00000+0  66361-3 0  9999", "line2": "2 30081  98.9222 339.3716 0076076 349.5573  69.3728 13.98269143963021"}}, "geometry": {"type": "Point", "coordinates": [-14.142316142396263, -34.01806581826519]}}, {"type": "Feature", "properties": {"norad_id": 30082, "name": "FENGYUN 1C DEB", "group": "fengyun-1c-debris", "lat": -70.91480465776166, "lon": 63.96444253837529, "alt_km": 516.2304862248993, "timestamp": "2025-12-09T09:46:47.919279+00:00", "meta": {"OBJECT_NAME": "FENGYUN 1C DEB", "OBJECT_ID": "1999-025QK", "EPOCH": "2025-12-08T18:24:08.098560", "MEAN_MOTION": 15.14816618, "ECCENTRICITY": 0.00696085, "INCLINATION": 98.8179, "RA_OF_ASC_NODE": 269.8806, "ARG_OF_PERICENTER": 179.7472, "MEAN_ANOMALY": 180.3803, "EPHEMERIS_TYPE": 0, "CLASSIFICATION_TYPE": "U", "NORAD_CAT_ID": 30082, "ELEMENT_SET_NO": 999, "REV_AT_EPOCH": 1233, "BSTAR": 0.001561389, "MEAN_MOTION_DOT": 0.00030842, "MEAN_MOTION_DDOT": 0}, "tle": {"line1": "1 30082U 99025QK  25342.76676040  .00030842  00000+0  15614-2 0  9995", "line2": "2 30082  98.8179 269.8806 0069608 179.7472 180.3803 15.14816618 12335"}}, "geometry": {"type": "Point", "coordinates": [63.96444253837529, -70.91480465776166]}}, {"type": "Feature", "properties": {"norad_id": 30086, "name": "FENGYUN 1C DEB", "group": "fengyun-1c-debris", "lat": 46.6733802607901, "lon": 7.583009994166, "alt_km": 880.9918862720415, "timestamp": "2025-12-09T09:46:47.919290+00:00", "meta": {"OBJECT_NAME": "FENGYUN 1C DEB", "OBJECT_ID": "1999-025QP", "EPOCH": "2025-12-08T23:38:00.144096", "MEAN_MOTION": 14.03819895, "ECCENTRICITY": 0.00617424, "INCLINATION": 98.9101, "RA_OF_ASC_NODE": 16.7424, "ARG_OF_PERICENTER": 144.8576, "MEAN_ANOMALY": 287.918, "EPHEMERIS_TYPE": 0, "CLASSIFICATION_TYPE": "U", "NORAD_CAT_ID": 30086, "ELEMENT_SET_NO": 999, "REV_AT_EPOCH": 96643, "BSTAR": 0.00055828939, "MEAN_MOTION_DOT": 8.52e-06, "MEAN_MOTION_DDOT": 0}, "tle": {"line1": "1 30086U 99025QP  25342.98472389  .00000852  00000+0  55829-3 0  9994", "line2": "2 30086  98.9101  16.7424 0061742 144.8576 287.9180 14.03819895966437"}}, "geometry": {"type": "Point", "coordinates": [7.583009994166, 46.6733802607901]}}, {"type": "Feature", "properties": {"norad_id": 30087, "name": "FENGYUN 1C DEB", "group": "fengyun-1c-debris", "lat": -65.53438730864502, "lon": 34.6480565704704, "alt_km": 936.0248778365922, "timestamp": "2025-12-09T09:46:47.919301+00:00", "meta": {"OBJECT_NAME": "FENGYUN 1C DEB", "OBJECT_ID": "1999-025QQ", "EPOCH": "2025-12-08T14:46:11.144064", "MEAN_MOTION": 14.35691621, "ECCENTRICITY": 0.0230173, "INCLINATION": 98.3806, "RA_OF_ASC_NODE": 14.9731, "ARG_OF_PERICENTER": 133.638, "MEAN_ANOMALY": 27.084, "EPHEMERIS_TYPE": 0, "CLASSIFICATION_TYPE": "U", "NORAD_CAT_ID": 30087, "ELEMENT_SET_NO": 999, "REV_AT_EPOCH": 98636, "BSTAR": 0.00048344, "MEAN_MOTION_DOT": 1.839e-05, "MEAN_MOTION_DDOT": 0}, "tle": {"line1": "1 30087U 99025QQ  25342.61540676  .00001839  00000+0  48344-3 0  9990", "line2": "2 30087  98.3806  14.9731 0230173 133.6380  27.0840 14.35691621986360"}}, "geometry": {"type": "Point", "coordinates": [34.6480565704704, -65.53438730864502]}}, {"type": "Feature", "properties": {"norad_id": 30088, "name": "FENGYUN 1C DEB", "group": "fengyun-1c-debris", "lat": -5.608611259234861, "lon": 146.96049445391833, "alt_km": 728.6821290763319, "timestamp": "2025-12-09T09:46:47.919312+00:00", "meta": {"OBJECT_NAME": "FENGYUN 1C DEB", "OBJECT_ID": "1999-025QR", "EPOCH": "2025-12-08T23:10:29.805600", "MEAN_MOTION": 14.35894003, "ECCENTRICITY": 0.02007509, "INCLINATION": 98.3539, "RA_OF_ASC_NODE": 327.3588, "ARG_OF_PERICENTER": 258.8248, "MEAN_ANOMALY": 166.0656, "EPHEMERIS_TYPE": 0, "CLASSIFICATION_TYPE": "U", "NORAD_CAT_ID": 30088, "ELEMENT_SET_NO": 999, "REV_AT_EPOCH": 98618, "BSTAR": 0.00054811299, "MEAN_MOTION_DOT": 1.949e-05, "MEAN_MOTION_DDOT": 0}, "tle": {"line1": "1 30088U 99025QR  25342.96562275  .00001949  00000+0  54811-3 0  9996", "line2": "2 30088  98.3539 327.3588 0200750 258.8248 166.0656 14.35894003986184"}}, "geometry": {"type": "Point", "coordinates": [146.96049445391833, -5.608611259234861]}}, {"type": "Feature", "properties": {"norad_id": 30089, "name": "FENGYUN 1C DEB", "group": "fengyun-1c-debris", "lat": -70.64556176460252, "lon": -84.77329292675556, "alt_km": 777.575603220309, "timestamp": "2025-12-09T09:46:47.919322+00:00", "meta": {"OBJECT_NAME": "FENGYUN 1C DEB", "OBJECT_ID": "1999-025QS", "EPOCH": "2025-12-08T17:35:47.919264", "MEAN_MOTION": 14.30298076, "ECCENTRICITY": 0.00731299, "INCLINATION": 98.903, "RA_OF_ASC_NODE": 248.0337, "ARG_OF_PERICENTER": 221.7718, "MEAN_ANOMALY": 194.6602, "EPHEMERIS_TYPE": 0, "CLASSIFICATION_TYPE": "U", "NORAD_CAT_ID": 30089, "ELEMENT_SET_NO": 999, "REV_AT_EPOCH": 98422, "BSTAR": 0.00047115413, "MEAN_MOTION_DOT": 1.212e-05, "MEAN_MOTION_DDOT": 0}, "tle": {"line1": "1 30089U 99025QS  25342.73319351  .00001212  00000+0  47115-3 0  9999", "line2": "2 30089  98.9030 248.0337 0073129 221.7718 194.6602 14.30298076984221"}}, "geometry": {"type": "Point", "coordinates": [-84.77329292675556, -70.64556176460252]}}, {"type": "Feature", "properties": {"norad_id": 30090, "name": "FENGYUN 1C DEB", "group": "fengyun-1c-debris", "lat": -16.346393222064705, "lon": -26.55436252210342, "alt_km": 788.8800148241808, "timestamp": "2025-12-09T09:46:47.919333+00:00", "meta": {"OBJECT_NAME": "FENGYUN 1C DEB", "OBJECT_ID": "1999-025QT", "EPOCH": "2025-12-08T11:17:02.120352", "MEAN_MOTION": 14.29018184, "ECCENTRICITY": 0.00581495, "INCLINATION": 99.4091, "RA_OF_ASC_NODE": 155.2226, "ARG_OF_PERICENTER": 123.952, "MEAN_ANOMALY": 292.4503, "EPHEMERIS_TYPE": 0, "CLASSIFICATION_TYPE": "U", "NORAD_CAT_ID": 30090, "ELEMENT_SET_NO": 999, "REV_AT_EPOCH": 98209, "BSTAR": 0.00058131353, "MEAN_MOTION_DOT": 1.448e-05, "MEAN_MOTION_DDOT": 0}, "tle": {"line1": "1 30090U 99025QT  25342.47016343  .00001448  00000+0  58131-3 0  9998", "line2": "2 30090  99.4091 155.2226 0058149 123.9520 292.4503 14.29018184982099"}}, "geometry": {"type": "Point", "coordinates": [-26.55436252210342, -16.346393222064705]}}, {"type": "Feature", "properties": {"norad_id": 30092, "name": "FENGYUN 1C DEB", "group": "fengyun-1c-debris", "lat": 34.49664165854747, "lon": 156.33033431390086, "alt_km": 800.3497637874816, "timestamp": "2025-12-09T09:46:47.919344+00:00", "meta": {"OBJECT_NAME": "FENGYUN 1C DEB", "OBJECT_ID": "1999-025QV", "EPOCH": "2025-12-08T18:40:04.189728", "MEAN_MOTION": 14.3911808, "ECCENTRICITY": 0.0082572, "INCLINATION": 98.9226, "RA_OF_ASC_NODE": 161.8732, "ARG_OF_PERICENTER": 262.2107, "MEAN_ANOMALY": 111.8164, "EPHEMERIS_TYPE": 0, "CLASSIFICATION_TYPE": "U", "NORAD_CAT_ID": 30092, "ELEMENT_SET_NO": 999, "REV_AT_EPOCH": 98692, "BSTAR": 0.0010514064, "MEAN_MOTION_DOT": 3.336e-05, "MEAN_MOTION_DDOT": 0}, "tle": {"line1": "1 30092U 99025QV  25342.77782627  .00003336  00000+0  10514-2 0  9998", "line2": "2 30092  98.9226 161.8732 0082572 262.2107 111.8164 14.39118080986925"}}, "geometry": {"type": "Point", "coordinates": [156.33033431390086, 34.49664165854747]}}, {"type": "Feature", "properties": {"norad_id": 30093, "name": "FENGYUN 1C DEB", "group": "fengyun-1c-debris", "lat": -13.062398300588786, "lon": 35.764310679416326, "alt_km": 796.0872502140373, "timestamp": "2025-12-09T09:46:47.919355+00:00", "meta": {"OBJECT_NAME": "FENGYUN 1C DEB", "OBJECT_ID": "1999-025QW", "EPOCH": "2025-12-08T21:18:46.186848", "MEAN_MOTION": 14.43651862, "ECCENTRICITY": 0.00704117, "INCLINATION": 98.8672, "RA_OF_ASC_NODE": 217.2992, "ARG_OF_PERICENTER": 349.0169, "MEAN_ANOMALY": 26.2501, "EPHEMERIS_TYPE": 0, "CLASSIFICATION_TYPE": "U", "NORAD_CAT_ID": 30093, "ELEMENT_SET_NO": 999, "REV_AT_EPOCH": 98748, "BSTAR": 0.0011626721, "MEAN_MOTION_DOT": 4.018e-05, "MEAN_MOTION_DDOT": 0}, "tle": {"line1": "1 30093U 99025QW  25342.88803457  .00004018  00000+0  11627-2 0  9990", "line2": "2 30093  98.8672 217.2992 0070411 349.0169  26.2501 14.43651862987486"}}, "geometry": {"type": "Point", "coordinates": [35.764310679416326, -13.062398300588786]}}, {"type": "Feature", "properties": {"norad_id": 30095, "name": "FENGYUN 1C DEB", "group": "fengyun-1c-debris", "lat": -32.71846473158748, "lon": 78.0385970888177, "alt_km": 703.7631539970862, "timestamp": "2025-12-09T09:46:47.919366+00:00", "meta": {"OBJECT_NAME": "FENGYUN 1C DEB", "OBJECT_ID": "1999-025QY", "EPOCH": "2025-12-08T08:30:04.355712", "MEAN_MOTION": 14.81639497, "ECCENTRICITY": 0.01670542, "INCLINATION": 99.22, "RA_OF_ASC_NODE": 262.8169, "ARG_OF_PERICENTER": 346.1949, "MEAN_ANOMALY": 13.4719, "EPHEMERIS_TYPE": 0, "CLASSIFICATION_TYPE": "U", "NORAD_CAT_ID": 30095, "ELEMENT_SET_NO": 999, "REV_AT_EPOCH": 99270, "BSTAR": 0.0026971641, "MEAN_MOTION_DOT": 0.00027053, "MEAN_MOTION_DDOT": 0}, "tle": {"line1": "1 30095U 99025QY  25342.35421708  .00027053  00000+0  26972-2 0  9992", "line2": "2 30095  99.2200 262.8169 0167054 346.1949  13.4719 14.81639497992708"}}, "geometry": {"type": "Point", "coordinates": [78.0385970888177, -32.71846473158748]}}]}